0 COSMOS 739
1 07828U 75045H   13281.22915152 -.00000030  00000-0 -88437-4 0  6523
2 07828 074.0188 203.5301 0030718 148.5915 005.7513 12.54136624756688
0 COSMOS 739
1 07828U 75045H   13283.53250130 -.00000038  00000-0 -13870-3 0  6534
2 07828 074.0189 200.4437 0030691 145.0398 325.1913 12.54136711756974
0 COSMOS 739
1 07828U 75045H   13285.83375264 -.00000006  00000-0  61255-4 0  6541
2 07828 074.0189 197.3601 0030658 141.5100 275.1402 12.54136502757264
0 COSMOS 739
1 07828U 75045H   13288.17159852  .00000029  00000-0  27874-3 0  6557
2 07828 074.0186 194.2277 0030638 137.8977 030.3356 12.54136213757554
0 COSMOS 739
1 07828U 75045H   13290.47207362  .00000015  00000-0  19536-3 0  6565
2 07828 074.0181 191.1453 0030626 134.3245 336.8201 12.54136360757846
0 COSMOS 739
1 07828U 75045H   13292.85487993 -.00000015  00000-0  49126-5 0  6571
2 07828 074.0177 187.9525 0030616 130.6284 295.0199 12.54136768758143
0 COSMOS 739
1 07828U 75045H   13295.09750782 -.00000023  00000-0 -42609-4 0  6588
2 07828 074.0176 184.9474 0030587 127.1458 340.3315 12.54136928758426
